0 COSMOS 2251 DEB
1 34297U 93036MT  13281.78519845  .00000169  00000-0  69952-4 0  7953
2 34297 074.0490 149.0958 0018696 241.3035 190.2961 14.33957190242946
0 COSMOS 2251 DEB
1 34297U 93036MT  13284.09695610  .00000233  00000-0  92750-4 0  7960
2 34297 074.0486 144.8695 0018633 236.7313 243.9412 14.33958448243271
0 COSMOS 2251 DEB
1 34297U 93036MT  13286.45902719  .00000214  00000-0  86062-4 0  7972
2 34297 074.0482 140.5513 0018550 232.0401 197.3387 14.33959526243613
0 COSMOS 2251 DEB
1 34297U 93036MT  13288.69979907  .00000272  00000-0  10657-3 0  7984
2 34297 074.0480 136.4544 0018484 227.5465 244.6237 14.33961318243931
0 COSMOS 2251 DEB
1 34297U 93036MT  13290.72565964  .00000250  00000-0  98734-4 0  7995
2 34297 074.0480 132.7504 0018407 223.4930 262.4980 14.33962791244225
0 COSMOS 2251 DEB
1 34297U 93036MT  13292.95501491  .00000280  00000-0  10962-3 0  8009
2 34297 074.0481 128.6743 0018318 219.0148 250.8808 14.33963588244548
0 COSMOS 2251 DEB
1 34297U 93036MT  13294.98643669  .00000319  00000-0  12345-3 0  8019
2 34297 074.0481 124.9602 0018242 214.9111 297.5210 14.33964618244833
